GLOBALSTAR M075         
1 37192U 10054E   25071.58133757 -.00000075  00000+0  16335-3 0  9999
2 37192  51.9932 115.6786 0000466 118.1783  44.4927 12.62262358663644
GLOBALSTAR M073         
1 37193U 10054F   25071.34341343 -.00000102  00000+0  10299-4 0  9991
2 37193  52.0082  30.1492 0000557  85.9762  72.8179 12.62263982665603
GLOBALSTAR M083         
1 37739U 11033A   25071.51753206 -.00000078  00000+0  14474-3 0  9999
2 37739  51.9885 338.4838 0000731  64.7861 107.1496 12.62260279634645
GLOBALSTAR M091         
1 37741U 11033C   25071.62789262 -.00000112  00000+0 -43134-4 0  9991
2 37741  51.9985 207.1014 0000805  85.4031 287.8728 12.62265728630990
GLOBALSTAR M085         
1 37742U 11033D   25071.64388591 -.00000089  00000+0  83450-4 0  9991
2 37742  51.9856 158.1772 0000633  96.7827  49.2607 12.62266119631500
